LEMUR-2-BALTO           
1 63395U 25052BH  26068.69493058  .00007621  00000+0  63456-3 0  9998
2 63395  97.6978 323.5166 0002279 359.2852   0.8367 14.98934076 53850
STARLINK-34051          
1 64022U 25102A   26068.49924251 -.00000203  00000+0 -92263-5 0  9995
2 64022  70.0013 114.9428 0003510 262.1194  97.9567 14.98336627 45922
